start=new Date('2022-06-29T00:00:00.000Z').valueOf();
sats=[{"INCLINATION":"53.2161","OBJECT_TYPE":"PAYLOAD","TLE_LINE1":"1 52679U 22053Z   22179.91667824  .00003849  00000-0  31905-4 0  9991","LAUNCH_DATE":"2022-05-18","TLE_LINE2":"2 52679  53.2161  92.5316 0002275  32.2763 159.9126 15.73149166  6859","SEMIMAJOR_AXIS":"6728.040","GP_ID":"207036194","OBJECT_NAME":"STARLINK-4031","RCS_SIZE":"LARGE","MEAN_ANOMALY":"159.9126","BSTAR":"0.00003190500000","NORAD_CAT_ID":"52679","DECAY_DATE":null,"COUNTRY_CODE":"US","PERIOD":"91.536","APOAPSIS":"351.436","REV_AT_EPOCH":"685","OBJECT_ID":"2022-053Z","FILE":"3504847","MEAN_MOTION_DDOT":"0.0000000000000","CLASSIFICATION_TYPE":"U","CENTER_NAME":"EARTH","ARG_OF_PERICENTER":"32.2763","SITE":"AFETR","RA_OF_ASC_NODE":"92.5316","MEAN_MOTION_DOT":"0.00003849","TIME_SYSTEM":"UTC","ELEMENT_SET_NO":"999","EPHEMERIS_TYPE":"0","MEAN_MOTION":"15.73149166","MEAN_ELEMENT_THEORY":"SGP4","PERIAPSIS":"348.374","REF_FRAME":"TEME","EPOCH":"2022-06-28T22:00:00.999936","ECCENTRICITY":"0.00022750"},{"MEAN_MOTION_DDOT":"0.0000000000000","CLASSIFICATION_TYPE":"U","CENTER_NAME":"EARTH","OBJECT_ID":"2022-053AA","FILE":"3504847","ARG_OF_PERICENTER":"26.4949","RA_OF_ASC_NODE":"92.5331","SITE":"AFETR","MEAN_MOTION_DOT":"0.00010209","ELEMENT_SET_NO":"999","TIME_SYSTEM":"UTC","MEAN_ELEMENT_THEORY":"SGP4","MEAN_MOTION":"15.73076640","EPHEMERIS_TYPE":"0","REF_FRAME":"TEME","PERIAPSIS":"348.721","ECCENTRICITY":"0.00020680","EPOCH":"2022-06-28T22:00:00.999936","INCLINATION":"53.2161","SEMIMAJOR_AXIS":"6728.247","TLE_LINE2":"2 52680  53.2161  92.5331 0002068  26.4949 163.5088 15.73076640  6853","GP_ID":"207035859","OBJECT_TYPE":"PAYLOAD","TLE_LINE1":"1 52680U 22053AA  22179.91667824  .00010209  00000-0  77469-4 0  9996","LAUNCH_DATE":"2022-05-18","MEAN_ANOMALY":"163.5088","OBJECT_NAME":"STARLINK-3774","RCS_SIZE":"LARGE","DECAY_DATE":null,"COUNTRY_CODE":"US","BSTAR":"0.00007746900000","NORAD_CAT_ID":"52680","PERIOD":"91.540","APOAPSIS":"351.503","REV_AT_EPOCH":"685"},{"ELEMENT_SET_NO":"999","TIME_SYSTEM":"UTC","MEAN_MOTION_DOT":"0.00001590","RA_OF_ASC_NODE":"92.5268","SITE":"AFETR","ARG_OF_PERICENTER":"16.4189","CLASSIFICATION_TYPE":"U","CENTER_NAME":"EARTH","MEAN_MOTION_DDOT":"0.0000000000000","FILE":"3504942","OBJECT_ID":"2022-053AB","ECCENTRICITY":"0.00026850","EPOCH":"2022-06-28T22:00:00.999936","REF_FRAME":"TEME","PERIAPSIS":"347.987","MEAN_MOTION":"15.73188283","MEAN_ELEMENT_THEORY":"SGP4","EPHEMERIS_TYPE":"0","MEAN_ANOMALY":"176.3454","RCS_SIZE":"LARGE","OBJECT_NAME":"STARLINK-4068","GP_ID":"207062621","TLE_LINE2":"2 52681  53.2164  92.5268 0002685  16.4189 176.3454 15.73188283  1307","SEMIMAJOR_AXIS":"6727.929","LAUNCH_DATE":"2022-05-18","TLE_LINE1":"1 52681U 22053AB  22179.91667824  .00001590  00000-0  15769-4 0  9995","OBJECT_TYPE":"PAYLOAD","INCLINATION":"53.2164","REV_AT_EPOCH":"130","APOAPSIS":"351.600","PERIOD":"91.534","COUNTRY_CODE":"US","DECAY_DATE":null,"NORAD_CAT_ID":"52681","BSTAR":"0.00001576900000"},{"MEAN_ANOMALY":"164.4042","OBJECT_NAME":"STARLINK-4017","RCS_SIZE":"LARGE","SEMIMAJOR_AXIS":"6727.954","TLE_LINE2":"2 52682  53.2147  92.5310 0002162  26.6000 164.4042 15.73179393  1305","GP_ID":"207062719","TLE_LINE1":"1 52682U 22053AC  22179.91667824  .00003395  00000-0  28627-4 0  9998","OBJECT_TYPE":"PAYLOAD","LAUNCH_DATE":"2022-05-18","INCLINATION":"53.2147","APOAPSIS":"351.274","REV_AT_EPOCH":"130","PERIOD":"91.534","DECAY_DATE":null,"COUNTRY_CODE":"US","BSTAR":"0.00002862700000","NORAD_CAT_ID":"52682","ELEMENT_SET_NO":"999","TIME_SYSTEM":"UTC","SITE":"AFETR","RA_OF_ASC_NODE":"92.5310","MEAN_MOTION_DOT":"0.00003395","ARG_OF_PERICENTER":"26.6000","MEAN_MOTION_DDOT":"0.0000000000000","CENTER_NAME":"EARTH","CLASSIFICATION_TYPE":"U","OBJECT_ID":"2022-053AC","FILE":"3504942","ECCENTRICITY":"0.00021620","EPOCH":"2022-06-28T22:00:00.999936","PERIAPSIS":"348.364","REF_FRAME":"TEME","MEAN_ELEMENT_THEORY":"SGP4","MEAN_MOTION":"15.73179393","EPHEMERIS_TYPE":"0"},{"MEAN_MOTION_DOT":"-0.00020965","RA_OF_ASC_NODE":"92.5244","SITE":"AFETR","TIME_SYSTEM":"UTC","ELEMENT_SET_NO":"999","FILE":"3504942","OBJECT_ID":"2022-053AD","CLASSIFICATION_TYPE":"U","CENTER_NAME":"EARTH","MEAN_MOTION_DDOT":"0.0000000000000","ARG_OF_PERICENTER":"29.0722","EPOCH":"2022-06-28T22:00:00.999936","ECCENTRICITY":"0.00021340","EPHEMERIS_TYPE":"0","MEAN_MOTION":"15.73143505","MEAN_ELEMENT_THEORY":"SGP4","PERIAPSIS":"348.485","REF_FRAME":"TEME","LAUNCH_DATE":"2022-05-18","TLE_LINE1":"1 52683U 22053AD  22179.91667824 -.00020965  00000-0 -14566-3 0  9999","OBJECT_TYPE":"PAYLOAD","GP_ID":"207062967","SEMIMAJOR_AXIS":"6728.056","TLE_LINE2":"2 52683  53.2163  92.5244 0002134  29.0722 164.9396 15.73143505  1300","RCS_SIZE":"LARGE","OBJECT_NAME":"STARLINK-4039","MEAN_ANOMALY":"164.9396","INCLINATION":"53.2163","REV_AT_EPOCH":"130","APOAPSIS":"351.357","NORAD_CAT_ID":"52683","BSTAR":"-0.00014566000000","COUNTRY_CODE":"US","DECAY_DATE":null,"PERIOD":"91.536"},{"SEMIMAJOR_AXIS":"6727.924","TLE_LINE2":"2 52684  53.2164  92.5301 0002360  40.2197 151.2173 15.73189722  6856","GP_ID":"207036231","OBJECT_TYPE":"PAYLOAD","TLE_LINE1":"1 52684U 22053AE  22179.91667824  .00005108  00000-0  40817-4 0  9999","LAUNCH_DATE":"2022-05-18","MEAN_ANOMALY":"151.2173","OBJECT_NAME":"STARLINK-4014","RCS_SIZE":"LARGE","INCLINATION":"53.2164","APOAPSIS":"351.377","REV_AT_EPOCH":"685","DECAY_DATE":null,"COUNTRY_CODE":"US","BSTAR":"0.00004081700000","NORAD_CAT_ID":"52684","PERIOD":"91.534","SITE":"AFETR","RA_OF_ASC_NODE":"92.5301","MEAN_MOTION_DOT":"0.00005108","ELEMENT_SET_NO":"999","TIME_SYSTEM":"UTC","MEAN_MOTION_DDOT":"0.0000000000000","CLASSIFICATION_TYPE":"U","CENTER_NAME":"EARTH","OBJECT_ID":"2022-053AE","FILE":"3504848","ARG_OF_PERICENTER":"40.2197","ECCENTRICITY":"0.00023600","EPOCH":"2022-06-28T22:00:00.999936","MEAN_ELEMENT_THEORY":"SGP4","MEAN_MOTION":"15.73189722","EPHEMERIS_TYPE":"0","PERIAPSIS":"348.202","REF_FRAME":"TEME"},{"EPOCH":"2022-06-28T22:00:00.999936","ECCENTRICITY":"0.00020540","REF_FRAME":"TEME","PERIAPSIS":"348.453","EPHEMERIS_TYPE":"0","MEAN_ELEMENT_THEORY":"SGP4","MEAN_MOTION":"15.73173632","TIME_SYSTEM":"UTC","ELEMENT_SET_NO":"999","SITE":"AFETR","RA_OF_ASC_NODE":"92.5228","MEAN_MOTION_DOT":"0.00003125","ARG_OF_PERICENTER":"30.1631","OBJECT_ID":"2022-053AF","FILE":"3504942","MEAN_MOTION_DDOT":"0.0000000000000","CLASSIFICATION_TYPE":"U","CENTER_NAME":"EARTH","APOAPSIS":"351.217","REV_AT_EPOCH":"130","PERIOD":"91.535","BSTAR":"0.00002671300000","NORAD_CAT_ID":"52685","DECAY_DATE":null,"COUNTRY_CODE":"US","OBJECT_NAME":"STARLINK-4029","RCS_SIZE":"LARGE","MEAN_ANOMALY":"165.5487","OBJECT_TYPE":"PAYLOAD","TLE_LINE1":"1 52685U 22053AF  22179.91667824  .00003125  00000-0  26713-4 0  9996","LAUNCH_DATE":"2022-05-18","TLE_LINE2":"2 52685  53.2162  92.5228 0002054  30.1631 165.5487 15.73173632  1308","SEMIMAJOR_AXIS":"6727.970","GP_ID":"207062274","INCLINATION":"53.2162"},{"PERIOD":"91.536","NORAD_CAT_ID":"52686","BSTAR":"0.00003165700000","COUNTRY_CODE":"US","DECAY_DATE":null,"REV_AT_EPOCH":"130","APOAPSIS":"351.430","INCLINATION":"53.2164","RCS_SIZE":"LARGE","OBJECT_NAME":"STARLINK-4005","MEAN_ANOMALY":"158.3825","LAUNCH_DATE":"2022-05-18","OBJECT_TYPE":"PAYLOAD","TLE_LINE1":"1 52686U 22053AG  22179.91667824  .00003815  00000-0  31657-4 0  9996","GP_ID":"207062372","SEMIMAJOR_AXIS":"6728.030","TLE_LINE2":"2 52686  53.2164  92.5264 0002282  34.9825 158.3825 15.73152880  1309","PERIAPSIS":"348.359","REF_FRAME":"TEME","EPHEMERIS_TYPE":"0","MEAN_ELEMENT_THEORY":"SGP4","MEAN_MOTION":"15.73152880","EPOCH":"2022-06-28T22:00:00.999936","ECCENTRICITY":"0.00022820","ARG_OF_PERICENTER":"34.9825","FILE":"3504942","OBJECT_ID":"2022-053AG","CENTER_NAME":"EARTH","CLASSIFICATION_TYPE":"U","MEAN_MOTION_DDOT":"0.0000000000000","TIME_SYSTEM":"UTC","ELEMENT_SET_NO":"999","MEAN_MOTION_DOT":"0.00003815","SITE":"AFETR","RA_OF_ASC_NODE":"92.5264"},{"GP_ID":"207062913","SEMIMAJOR_AXIS":"6728.055","TLE_LINE2":"2 52687  53.2164  92.5194 0002058  25.0044 171.3477 15.73143806  1303","LAUNCH_DATE":"2022-05-18","OBJECT_TYPE":"PAYLOAD","TLE_LINE1":"1 52687U 22053AH  22179.91667824  .00003426  00000-0  28888-4 0  9997","MEAN_ANOMALY":"171.3477","RCS_SIZE":"LARGE","OBJECT_NAME":"STARLINK-3981","INCLINATION":"53.2164","REV_AT_EPOCH":"130","APOAPSIS":"351.305","COUNTRY_CODE":"US","DECAY_DATE":null,"NORAD_CAT_ID":"52687","BSTAR":"0.00002888800000","PERIOD":"91.536","MEAN_MOTION_DOT":"0.00003426","RA_OF_ASC_NODE":"92.5194","SITE":"AFETR","ELEMENT_SET_NO":"999","TIME_SYSTEM":"UTC","CENTER_NAME":"EARTH","CLASSIFICATION_TYPE":"U","MEAN_MOTION_DDOT":"0.0000000000000","FILE":"3504942","OBJECT_ID":"2022-053AH","ARG_OF_PERICENTER":"25.0044","ECCENTRICITY":"0.00020580","EPOCH":"2022-06-28T22:00:00.999936","MEAN_ELEMENT_THEORY":"SGP4","MEAN_MOTION":"15.73143806","EPHEMERIS_TYPE":"0","PERIAPSIS":"348.536","REF_FRAME":"TEME"},{"DECAY_DATE":null,"COUNTRY_CODE":"US","BSTAR":"0.00000012157000","NORAD_CAT_ID":"52688","PERIOD":"91.529","APOAPSIS":"351.021","REV_AT_EPOCH":"130","INCLINATION":"53.2161","TLE_LINE2":"2 52688  53.2161  92.5241 0002144  31.2278 163.2394 15.73263776  1305","SEMIMAJOR_AXIS":"6727.713","GP_ID":"207062464","TLE_LINE1":"1 52688U 22053AJ  22179.91667824 -.00000605  00000-0  12157-6 0  9999","OBJECT_TYPE":"PAYLOAD","LAUNCH_DATE":"2022-05-18","MEAN_ANOMALY":"163.2394","OBJECT_NAME":"STARLINK-4032","RCS_SIZE":"LARGE","MEAN_ELEMENT_THEORY":"SGP4","MEAN_MOTION":"15.73263776","EPHEMERIS_TYPE":"0","REF_FRAME":"TEME","PERIAPSIS":"348.136","ECCENTRICITY":"0.00021440","EPOCH":"2022-06-28T22:00:00.999936","MEAN_MOTION_DDOT":"0.0000000000000","CENTER_NAME":"EARTH","CLASSIFICATION_TYPE":"U","OBJECT_ID":"2022-053AJ","FILE":"3504942","ARG_OF_PERICENTER":"31.2278","SITE":"AFETR","RA_OF_ASC_NODE":"92.5241","MEAN_MOTION_DOT":"-0.00000605","ELEMENT_SET_NO":"999","TIME_SYSTEM":"UTC"}];
